#dP2022  9  1  0  0  0.00000000     289 ORBIT ITRF  BHN ESOC                    
## 2225 345600.00000000   300.00000000 59823 0.0000000000000                    
+  116   G22G13G28G21G07G05G20G31G17G15G16G29G12G19G02G25G01                    
+        G30G24G27G06G09G03G32G26G08G10G04G18G23G14G11R09R11                    
+        R20R19R13R01R08R03R07R02R17R14R18R21R05R15R12R04R24                    
+        E11E12E19E18E14E26E24E30E08E09E01E02E07E03E04E05E21                    
+        E25E27E31E36E13E15E33E34E10C11C12C14C19C20C27C28C22                    
+        C21C29C30C23C24C26C25C32C33C35C34C37C46C45C44C43C41                    
+        C42C06C07C08C09C10C13C16C38C39C40J02J03J04  0  0  0                    
++         5  5  5  5  5  5  5  5  5  5  5  6  5  5  5  5  5                    
++         5  5  5  6  5  5  5  5  5  5  5  5  5  5  5  6  5                    
++         6  6  6  6  5  5  5  5  6  5  7  6  5  6  6  5  6                    
++         5  5  6  5  5  5  5  5  5  5  5  5  5  5  6  5  5                    
++         5  5  5  5  5  6  5  5  5  8  8  5  6  6  6  5  5                    
++         6  6  5  5  5  5  5  5  5  6  5  5  6  6  5  5  5                    
++         6  6  6  7  8  6  6  6  8  8  7  6  7  8  0  0  0                    
%c M  cc GPS ccc cccc cccc cccc cccc ccccc ccccc ccccc ccccc                    
%c cc cc ccc ccc cccc cccc cccc cccc ccccc ccccc ccccc ccccc                    
%f  0.0000000  0.000000000  0.00000000000  0.000000000000000                    
%f  0.0000000  0.000000000  0.00000000000  0.000000000000000                    
%i    0    0    0    0      0      0      0      0         0                    
%i    0    0    0    0      0      0      0      0         0                    
/* CCCCCCCCCCCCCCCCCCCCCCCCCCCCCCCCCCCCCCCCCCCCCCCCCCCCCCCCCCCCCCCCCCCCCCCCCCCCC
/* CCCCCCCCCCCCCCCCCCCCCCCCCCCCCCCCCCCCCCCCCCCCCCCCCCCCCCCCCCCCCCCCCCCCCCCCCCCCC
/* CCCCCCCCCCCCCCCCCCCCCCCCCCCCCCCCCCCCCCCCCCCCCCCCCCCCCCCCCCCCCCCCCCCCCCCCCCCCC
/* PCV:IGS        OL/AL:EOT11A   NONE     YN ORB:CoN CLK:CoN                    
*  2022  9  1  7 50  0.00000000                                                 
PG22  18501.898438  18578.425923  -4373.227796    319.977997                    
PG13 -19276.756585  -7675.782282  16521.910727    379.007945                    
PG28 -15822.472682 -10918.658011  18731.014137    340.128270                    
PG21  15646.342195 -11630.056233  18315.481872    159.948813                    
PG07   4698.066730 -25567.914311   4353.209241    310.875904                    
PG05 -25932.408969   5861.169427  -1779.442465    -95.015125                    
PG20 -22343.208720  -1883.516195 -14050.515451    490.059190                    
PG31  10628.560697  13505.354076 -20264.602237   -191.755532                    
PG17 -11726.216721 -22612.544942   7849.541396    654.571399                    
PG15 -17220.752994   4476.825544  19371.413803    -32.612763                    
PG16  25830.901797   1494.310874  -7256.864560   -522.703316                    
PG29  -1495.248351  18527.827227 -18985.823323   -547.785073                    
PG12 -22476.674882  10336.072930  -9789.058236   -271.347538                    
PG19 -17441.815424 -20037.082941  -2885.974478    204.825165                    
PG02 -15319.329771  10776.957177 -18281.841288   -647.458653                    
PG25 -11492.303702  15884.470573 -18078.541438    367.214947                    
PG01  13611.717422 -19916.929645  10404.969527    291.688480                    
PG30  -3297.198482 -22489.681504  13623.342582   -536.579493                    
PG24 -14244.893717  17080.062534  13887.099230    150.277015                    
PG27  21174.687021   9882.835965  12772.392358    215.636093                    
PG06  -8851.049746 -15302.717245 -19738.383198    445.793407                    
PG09   -338.283754 -19131.603325 -18480.541893   -301.492758                    
PG03  20975.418014 -12273.072932 -10708.744795   -343.236744                    
PG32  15243.545420  21310.497032   5091.609840   -220.284086                    
PG26  21145.009009   5599.491738 -15371.894711    226.494450                    
PG08  17294.885089  -2291.078209  20085.654248    -82.790362                    
PG10   9406.609175  12783.327676  21493.689110     -1.333479                    
PG04  10792.949463 -10713.346917 -21770.055342   -125.104819                    
PG18  -4958.331444  25580.064635   4762.846621     63.212831                    
PG23  -2407.806472  15690.786785  21262.796482    -38.602744                    
PG14  -7045.905997 -14159.952125  21356.314553   -106.385445                    
PG11 -14826.409184  -3469.970445 -21761.808290    -13.682486                    
PR09  20323.009844  -8497.474905 -12771.902554     74.283999                    
PR11   6566.050219 -16491.425832  18326.559505     28.723870                    
PR20  10491.779333   1667.181285  23196.711013    -77.613957                    
PR19   7631.022773  20933.908848  12401.999212   -202.104646                    
PR13 -19926.938045   7477.098971  14053.497691    -26.358010                    
PR01 -20661.238701 -12199.393474  -8678.123457     14.023462                    
PR08  -6490.351540 -13224.777017 -20763.655817    -67.018703                    
PR03 -11243.817959   6664.581889  21932.620294     62.876383                    
PR07  10641.820324  -6971.671520 -22083.912205     40.245559                    
PR02 -22813.000228  -3984.935792  10656.894768    528.463516                    
PR17  -5727.116025  17430.980514 -17691.511215    557.345112                    
PR14 -18323.383075  17256.677346  -4184.817654     24.316712                    
PR18   1934.696490  25291.614801  -2882.109278     40.256592                    
PR21   5094.287058 -18688.716852  16614.229127   -330.226668                    
PR05  20462.143460  12703.472303   8447.644240     98.863850                    
PR15  -5869.285260  16162.752709 -18817.026926     93.907244                    
PR12 -10379.385125  -5610.186450  22645.564563     20.657732                    
PR04   6342.123740  13159.083316  20937.608603    155.952704                    
PR24 -10931.858398   -560.540792 -23027.792829    112.068815                    
PE11 -16841.648472   7672.234804 -23117.084195   2405.011120                    
PE12 -11798.864968 -15250.747787 -22463.841010   -145.596700                    
PE19  -7965.967207 -22913.486764 -16957.840257  -4651.700771                    
PE18  10220.281579 -12010.203785  18608.605412  -1027.934529                    
PE14 -21283.102613   4973.597214 -23551.400689  -1732.924277                    
PE26  11666.158625 -25375.045752   9823.124891  -1561.733700                    
PE24 -28609.739744   5935.839695   4665.448165   -812.497954                    
PE30  20211.697101   7941.640207 -20120.611404   -800.998943                    
PE08  23248.354472  18127.841370  -2585.608120   -591.188927                    
PE09 -22590.160611  -2334.552606  18991.976381   -643.046067                    
PE01    424.798313 -17352.639716  23985.878421   -519.810901                    
PE02   -202.834537  17297.903257 -24010.783750    321.953973                    
PE07  22608.481302   2218.457329 -18969.081139   -701.619037                    
PE03  10317.526398  23310.094421  15028.910438   -595.358310                    
PE04 -23172.204204 -18254.654779   2468.609149  -1105.924496                    
PE05  -8885.545044  14766.190290  24065.294451   -148.158419                    
PE21  19350.574563 -16929.392694  14675.291833   -755.160755                    
PE25 -19605.195167  16832.081240 -14423.312614   -586.365924                    
PE27  28580.715126  -6793.368350  -3652.999424   -381.722523                    
PE31 -20894.487986  -7264.946102  19682.145144   -502.707897                    
PE36 -11965.719760  24871.259227 -10696.503146   -425.047038                    
PE13  16748.125264  -6839.324132  23426.994655    430.453677                    
PE15  11666.516525  15412.535427  22415.094023    723.231683                    
PE33    269.361885 -28445.997655  -8187.067724   -453.599168                    
PE34   -103.297918  28387.149829   8344.557482     -2.294142                    
PE10 -15433.010024  -4551.432175 -24857.851571   -473.787398                    
PC11 -15589.388973 -17673.415098 -14913.951211   -435.195161                    
PC12  -7288.204618 -26897.785074   1737.874003   -533.012235                    
PC14 -24683.592334 -10439.370444  -7868.726128    624.676720                    
PC19  27495.127474   4489.681010  -1414.961327   -556.430534                    
PC20  19181.433100  14034.896111  14605.481123    380.868892                    
PC27   1136.244858  26058.275914  -9951.530291     14.064646                    
PC28 -11085.908981  14011.393444 -21432.874560      7.827544                    
PC22  20266.924239  -8087.411820 -17388.289998   -427.219834                    
PC21   1278.375526 -15805.002481 -22955.980176   -304.243810                    
PC29  17635.663908   6638.106480  20573.531522      7.530299                    
PC30  13562.985664  23428.533434   6798.650923    502.546568                    
PC23 -20928.542003  17627.084173   5485.114857   -967.249593                    
PC24  -6660.988995 -16125.903266  21782.492657   -971.446594                    
PC26   8397.684784 -23614.486568  12300.540440     -1.321106                    
PC25 -20156.772781   2607.554189  19109.928435   -684.672785                    
PC32  -1298.119751  15811.913354  22964.243971   -825.071696                    
PC33 -27536.306337  -4383.860665   1330.335879   -552.399641                    
PC35  11431.834924 -13104.172997  21809.167385    438.616419                    
PC34 -14063.483751 -22785.560899  -7846.082940   -323.461674                    
PC37  -9962.174720  23483.165191 -11267.918481    -57.912137                    
PC46   8104.401778  14732.534448 -22257.252046   -517.579556                    
PC45  20797.225633 -17897.970424  -5145.492935    849.631303                    
PC44  -1886.897529 -25945.784689  10052.912687     35.926090                    
PC43 -17769.322984  -7451.005902 -20190.962768     11.761041                    
PC41 -20671.282857   7893.106125  17049.439481    -37.997776                    
PC42 -18281.273086 -14400.662255 -15378.299068   -216.268755                    
PC06  -4340.243161  38338.821961  17283.127754    739.073638                    
PC07 -10226.747406  25366.649989 -32053.581351    -80.981354                    
PC08 -19645.525308  32962.577516  17235.223915    458.720599                    
PC09    473.083173  41478.911537   9312.236384   -877.320211                    
PC10  -2213.993038  26835.861493 -32121.563649    101.980312                    
PC13 -12766.905657  33216.839318  22511.444710     68.419464                    
PC16  -6465.209137  36423.077085  20659.935490    140.270723                    
PC38 -23953.167064  33321.918996   9252.189783     21.118717                    
PC39  -8181.564952  33045.254525  25016.827525     -0.400200                    
PC40 -15205.119341  18644.520512 -34653.672911     -3.390532                    
PJ02 -35957.923194  18326.256899  -7595.865503     -4.161609                    
PJ03 -19730.546150  28173.089882 -19748.410759     -1.143650                    
PJ04 -26582.770295  29098.130221  20950.859725    111.407213                    
EOF                                                                             
